{
  "type": "FeatureCollection",
  "features": [
    {
      "type": "Feature",
      "properties": {
        "norad_id": 39777,
        "name": "IRIDIUM 33 DEB",
        "group": "iridium-33-debris",
        "lat": -56.63221375061728,
        "lon": -4.892074513619881,
        "alt_km": 712.460015031811,
        "timestamp": "2025-12-25T07:00:34.434312+00:00",
        "meta_object_name": "IRIDIUM 33 DEB",
        "meta_object_id": "1997-051AAJ",
        "meta_epoch": "2025-12-23T11:03:57.726720",
        "meta_mean_motion": 14.56662937,
        "meta_eccentricity": 0.00604969,
        "meta_inclination": 85.9633,
        "meta_ra_of_asc_node": 169.8413,
        "meta_arg_of_pericenter": 150.614,
        "meta_mean_anomaly": 209.8492,
        "meta_ephemeris_type": 0,
        "meta_classification_type": "U",
        "meta_norad_cat_id": 39777,
        "meta_element_set_no": 999,
        "meta_rev_at_epoch": 60341,
        "meta_bstar": 0.0027053556,
        "meta_mean_motion_dot": 0.00012409,
        "meta_mean_motion_ddot": 0,
        "tle_line1": "1 39777U 97051AAJ 25357.46108480  .00012409  00000+0  27054-2 0  9993",
        "tle_line2": "2 39777  85.9633 169.8413 0060496 150.6140 209.8492 14.56662937603410"
      },
      "geometry": {
        "type": "Point",
        "coordinates": [
          -4.892074513619881,
          -56.63221375061728
        ]
      }
    },
    {
      "type": "Feature",
      "properties": {
        "norad_id": 39778,
        "name": "IRIDIUM 33 DEB",
        "group": "iridium-33-debris",
        "lat": -31.372419417881687,
        "lon": 35.561267788867085,
        "alt_km": 713.674418857916,
        "timestamp": "2025-12-25T07:00:34.434323+00:00",
        "meta_object_name": "IRIDIUM 33 DEB",
        "meta_object_id": "1997-051AAK",
        "meta_epoch": "2025-12-24T09:41:12.657408",
        "meta_mean_motion": 14.54337863,
        "meta_eccentricity": 0.00066717,
        "meta_inclination": 86.3766,
        "meta_ra_of_asc_node": 38.1613,
        "meta_arg_of_pericenter": 4.9575,
        "meta_mean_anomaly": 355.1697,
        "meta_ephemeris_type": 0,
        "meta_classification_type": "U",
        "meta_norad_cat_id": 39778,
        "meta_element_set_no": 999,
        "meta_rev_at_epoch": 60862,
        "meta_bstar": 0.00084263219,
        "meta_mean_motion_dot": 3.597e-05,
        "meta_mean_motion_ddot": 0,
        "tle_line1": "1 39778U 97051AAK 25358.40361872  .00003597  00000+0  84263-3 0  9999",
        "tle_line2": "2 39778  86.3766  38.1613 0006671   4.9575 355.1697 14.54337863608626"
      },
      "geometry": {
        "type": "Point",
        "coordinates": [
          35.561267788867085,
          -31.372419417881687
        ]
      }
    },
    {
      "type": "Feature",
      "properties": {
        "norad_id": 39781,
        "name": "IRIDIUM 33 DEB",
        "group": "iridium-33-debris",
        "lat": 13.520078933505012,
        "lon": -106.31939509091818,
        "alt_km": 918.797045651826,
        "timestamp": "2025-12-25T07:00:34.434344+00:00",
        "meta_object_name": "IRIDIUM 33 DEB",
        "meta_object_id": "1997-051AAN",
        "meta_epoch": "2025-12-24T11:32:12.708096",
        "meta_mean_motion": 14.20920321,
        "meta_eccentricity": 0.01727076,
        "meta_inclination": 86.3706,
        "meta_ra_of_asc_node": 253.1406,
        "meta_arg_of_pericenter": 235.4434,
        "meta_mean_anomaly": 309.1409,
        "meta_ephemeris_type": 0,
        "meta_classification_type": "U",
        "meta_norad_cat_id": 39781,
        "meta_element_set_no": 999,
        "meta_rev_at_epoch": 8273,
        "meta_bstar": 0.0050957425,
        "meta_mean_motion_dot": 0.00012849,
        "meta_mean_motion_ddot": 0,
        "tle_line1": "1 39781U 97051AAN 25358.48070264  .00012849  00000+0  50957-2 0  9995",
        "tle_line2": "2 39781  86.3706 253.1406 0172707 235.4434 309.1409 14.20920321 82730"
      },
      "geometry": {
        "type": "Point",
        "coordinates": [
          -106.31939509091818,
          13.520078933505012
        ]
      }
    },
    {
      "type": "Feature",
      "properties": {
        "norad_id": 40996,
        "name": "IRIDIUM 33 DEB",
        "group": "iridium-33-debris",
        "lat": 2.628456353011205,
        "lon": -4.290825177355885,
        "alt_km": 571.8631956134604,
        "timestamp": "2025-12-25T07:00:34.434356+00:00",
        "meta_object_name": "IRIDIUM 33 DEB",
        "meta_object_id": "1997-051ABJ",
        "meta_epoch": "2025-12-21T06:48:04.268736",
        "meta_mean_motion": 14.9672554,
        "meta_eccentricity": 0.001126,
        "meta_inclination": 86.3507,
        "meta_ra_of_asc_node": 357.4159,
        "meta_arg_of_pericenter": 39.2145,
        "meta_mean_anomaly": 336.8251,
        "meta_ephemeris_type": 0,
        "meta_classification_type": "U",
        "meta_norad_cat_id": 40996,
        "meta_element_set_no": 999,
        "meta_rev_at_epoch": 62616,
        "meta_bstar": 0.0023808,
        "meta_mean_motion_dot": 0.00027327,
        "meta_mean_motion_ddot": 0,
        "tle_line1": "1 40996U 97051ABJ 25355.28338274  .00027327  00000+0  23808-2 0  9990",
        "tle_line2": "2 40996  86.3507 357.4159 0011260  39.2145 336.8251 14.96725540626169"
      },
      "geometry": {
        "type": "Point",
        "coordinates": [
          -4.290825177355885,
          2.628456353011205
        ]
      }
    },
    {
      "type": "Feature",
      "properties": {
        "norad_id": 40998,
        "name": "IRIDIUM 33 DEB",
        "group": "iridium-33-debris",
        "lat": -66.03688856317433,
        "lon": 40.10782519030182,
        "alt_km": 751.6284690859766,
        "timestamp": "2025-12-25T07:00:34.434367+00:00",
        "meta_object_name": "IRIDIUM 33 DEB",
        "meta_object_id": "1997-051ABL",
        "meta_epoch": "2025-12-24T09:47:24.769248",
        "meta_mean_motion": 14.45133252,
        "meta_eccentricity": 0.00087498,
        "meta_inclination": 86.3815,
        "meta_ra_of_asc_node": 48.6709,
        "meta_arg_of_pericenter": 52.6459,
        "meta_mean_anomaly": 324.4141,
        "meta_ephemeris_type": 0,
        "meta_classification_type": "U",
        "meta_norad_cat_id": 40998,
        "meta_element_set_no": 999,
        "meta_rev_at_epoch": 6850,
        "meta_bstar": 0.00046540464,
        "meta_mean_motion_dot": 1.648e-05,
        "meta_mean_motion_ddot": 0,
        "tle_line1": "1 40998U 97051ABL 25358.40792557  .00001648  00000+0  46540-3 0  9994",
        "tle_line2": "2 40998  86.3815  48.6709 0008749  52.6459 324.4141 14.45133252 68504"
      },
      "geometry": {
        "type": "Point",
        "coordinates": [
          40.10782519030182,
          -66.03688856317433
        ]
      }
    },
    {
      "type": "Feature",
      "properties": {
        "norad_id": 46435,
        "name": "IRIDIUM 33 DEB",
        "group": "iridium-33-debris",
        "lat": -38.886815869706716,
        "lon": -174.46110399503942,
        "alt_km": 774.0542935623298,
        "timestamp": "2025-12-25T07:00:34.434377+00:00",
        "meta_object_name": "IRIDIUM 33 DEB",
        "meta_object_id": "1997-051ABN",
        "meta_epoch": "2025-12-23T07:26:56.673024",
        "meta_mean_motion": 14.32901113,
        "meta_eccentricity": 0.02063954,
        "meta_inclination": 86.2811,
        "meta_ra_of_asc_node": 189.3996,
        "meta_arg_of_pericenter": 241.8575,
        "meta_mean_anomaly": 300.4526,
        "meta_ephemeris_type": 0,
        "meta_classification_type": "U",
        "meta_norad_cat_id": 46435,
        "meta_element_set_no": 999,
        "meta_rev_at_epoch": 8067,
        "meta_bstar": 0.0098042113,
        "meta_mean_motion_dot": 0.00034078,
        "meta_mean_motion_ddot": 0,
        "tle_line1": "1 46435U 97051ABN 25357.31037816  .00034078  00000+0  98042-2 0  9991",
        "tle_line2": "2 46435  86.2811 189.3996 0206395 241.8575 300.4526 14.32901113 80678"
      },
      "geometry": {
        "type": "Point",
        "coordinates": [
          -174.46110399503942,
          -38.886815869706716
        ]
      }
    },
    {
      "type": "Feature",
      "properties": {
        "norad_id": 46734,
        "name": "IRIDIUM 33 DEB",
        "group": "iridium-33-debris",
        "lat": -28.414175272420053,
        "lon": 179.3786572969484,
        "alt_km": 755.4015161261032,
        "timestamp": "2025-12-25T07:00:34.434387+00:00",
        "meta_object_name": "IRIDIUM 33 DEB",
        "meta_object_id": "1997-051ABR",
        "meta_epoch": "2025-12-23T07:42:11.180736",
        "meta_mean_motion": 14.41950916,
        "meta_eccentricity": 0.00375691,
        "meta_inclination": 86.2641,
        "meta_ra_of_asc_node": 358.2178,
        "meta_arg_of_pericenter": 299.6503,
        "meta_mean_anomaly": 123.5651,
        "meta_ephemeris_type": 0,
        "meta_classification_type": "U",
        "meta_norad_cat_id": 46734,
        "meta_element_set_no": 999,
        "meta_rev_at_epoch": 63163,
        "meta_bstar": 0.0010295637,
        "meta_mean_motion_dot": 3.42e-05,
        "meta_mean_motion_ddot": 0,
        "tle_line1": "1 46734U 97051ABR 25357.32096274  .00003420  00000+0  10296-2 0  9999",
        "tle_line2": "2 46734  86.2641 358.2178 0037569 299.6503 123.5651 14.41950916631633"
      },
      "geometry": {
        "type": "Point",
        "coordinates": [
          179.3786572969484,
          -28.414175272420053
        ]
      }
    }
  ]
}